[{"OBJECT_NAME":"HST","OBJECT_ID":"1990-037B","EPOCH":"2026-03-09T03:50:04.164288","MEAN_MOTION":15.29473555,"ECCENTRICITY":0.00018372,"INCLINATION":28.4717,"RA_OF_ASC_NODE":43.6133,"ARG_OF_PERICENTER":120.9992,"MEAN_ANOMALY":239.0785,"EPHEMERIS_TYPE":0,"CLASSIFICATION_TYPE":"U","NORAD_CAT_ID":20580,"ELEMENT_SET_NO":999,"REV_AT_EPOCH":77323,"BSTAR":0.0003002261,"MEAN_MOTION_DOT":9.063e-5,"MEAN_MOTION_DDOT":0},{"OBJECT_NAME":"STARLINK-2098","OBJECT_ID":"2021-005AF","EPOCH":"2026-03-09T02:03:46.038528","MEAN_MOTION":15.30199006,"ECCENTRICITY":0.00012278,"INCLINATION":53.1592,"RA_OF_ASC_NODE":16.9696,"ARG_OF_PERICENTER":84.6552,"MEAN_ANOMALY":275.4589,"EPHEMERIS_TYPE":0,"CLASSIFICATION_TYPE":"U","NORAD_CAT_ID":47378,"ELEMENT_SET_NO":999,"REV_AT_EPOCH":28362,"BSTAR":-9.8556e-8,"MEAN_MOTION_DOT":-3.62e-6,"MEAN_MOTION_DDOT":0}]
