HST                     
1 20580U 90037B   26068.15977042  .00009063  00000+0  30023-3 0  9999
2 20580  28.4717  43.6133 0001837 120.9992 239.0785 15.29473555773239
STARLINK-2098           
1 47378U 21005AF  26068.08594952 -.00000362  00000+0 -98556-7 0  9993
2 47378  53.1592  16.9696 0001227  84.6552 275.4589 15.30199006283620
